[{"OBJECT_NAME":"STARLINK-35541","OBJECT_ID":"2025-245B","EPOCH":"2026-03-09T21:56:23.777376","MEAN_MOTION":15.30214296,"ECCENTRICITY":8.061e-5,"INCLINATION":53.1587,"RA_OF_ASC_NODE":282.6629,"ARG_OF_PERICENTER":82.3941,"MEAN_ANOMALY":277.7151,"EPHEMERIS_TYPE":0,"CLASSIFICATION_TYPE":"U","NORAD_CAT_ID":66235,"ELEMENT_SET_NO":999,"REV_AT_EPOCH":2124,"BSTAR":0.00097606581,"MEAN_MOTION_DOT":0.00028673,"MEAN_MOTION_DDOT":0},{"OBJECT_NAME":"TRANSPORTER-1 OBJECT AA","OBJECT_ID":"2021-006AA","EPOCH":"2026-03-09T22:58:14.761920","MEAN_MOTION":15.29982294,"ECCENTRICITY":0.00086604,"INCLINATION":97.2381,"RA_OF_ASC_NODE":112.457,"ARG_OF_PERICENTER":185.709,"MEAN_ANOMALY":174.4054,"EPHEMERIS_TYPE":0,"CLASSIFICATION_TYPE":"U","NORAD_CAT_ID":47437,"ELEMENT_SET_NO":999,"REV_AT_EPOCH":28414,"BSTAR":0.0002197941,"MEAN_MOTION_DOT":6.312e-5,"MEAN_MOTION_DDOT":0}]
